CTC2_L_00151001-01
1 10000U 22113VG  26075.70042824  .00000000  00000+0  00000-0 0  9996
2 10000 100.0000   0.0000 0000000   0.0000   0.0000 15.08756051    13
CTC2_L_00151001-02
1 10001U 25010EW  26075.70042824  .00000000  00000+0  00000-0 0  9996
2 10001 100.0000   0.0000 0000000   0.0000  90.0000 15.08756051    13
CTC2_L_00151001-03
1 10002U 22907WR  26075.70042824  .00000000  00000+0  00000-0 0  9999
2 10002 100.0000   0.0000 0000000   0.0000 180.0000 15.08756051    14
CTC2_L_00151001-04
1 10003U 22106U   26075.70042824  .00000000  00000+0  00000-0 0  9991
2 10003 100.0000   0.0000 0000000   0.0000 270.0000 15.08756051    15
CTC2_L_00151002-01
1 10004U 23929SJ  26075.70042824  .00000000  00000+0  00000-0 0  9996
2 10004 100.0000  12.0000 0000000   0.0000  12.0000 15.08756051    13
CTC2_L_00151002-02
1 10005U 23158GN  26075.70042824  .00000000  00000+0  00000-0 0  9991
2 10005 100.0000  12.0000 0000000   0.0000 102.0000 15.08756051    14
CTC2_L_00151002-03
1 10006U 25180EZ  26075.70042824  .00000000  00000+0  00000-0 0  9999
2 10006 100.0000  12.0000 0000000   0.0000 192.0000 15.08756051    14
CTC2_L_00151002-04
1 10007U 23451YU  26075.70042824  .00000000  00000+0  00000-0 0  9999
2 10007 100.0000  12.0000 0000000   0.0000 282.0000 15.08756051    15
CTC2_L_00151003-01
1 10008U 22474NN  26075.70042824  .00000000  00000+0  00000-0 0  9994
2 10008 100.0000  24.0000 0000000   0.0000  24.0000 15.08756051    13
CTC2_L_00151003-02
1 10009U 24766GG  26075.70042824  .00000000  00000+0  00000-0 0  9991
2 10009 100.0000  24.0000 0000000   0.0000 114.0000 15.08756051    14
CTC2_L_00151003-03
1 10010U 24536FV  26075.70042824  .00000000  00000+0  00000-0 0  9998
2 10010 100.0000  24.0000 0000000   0.0000 204.0000 15.08756051    16
CTC2_L_00151003-04
1 10011U 25741BK  26075.70042824  .00000000  00000+0  00000-0 0  9998
2 10011 100.0000  24.0000 0000000   0.0000 294.0000 15.08756051    16
CTC2_L_00151004-01
1 10012U 25565YW  26075.70042824  .00000000  00000+0  00000-0 0  9993
2 10012 100.0000  36.0000 0000000   0.0000  36.0000 15.08756051    14
CTC2_L_00151004-02
1 10013U 26837LR  26075.70042824  .00000000  00000+0  00000-0 0  9997
2 10013 100.0000  36.0000 0000000   0.0000 126.0000 15.08756051    15
CTC2_L_00151004-03
1 10014U 22139UU  26075.70042824  .00000000  00000+0  00000-0 0  9999
2 10014 100.0000  36.0000 0000000   0.0000 216.0000 15.08756051    16
CTC2_L_00151004-04
1 10015U 26143VC  26075.70042824  .00000000  00000+0  00000-0 0  9999
2 10015 100.0000  36.0000 0000000   0.0000 306.0000 15.08756051    17
CTC2_L_00151005-01
1 10016U 24610AM  26075.70042824  .00000000  00000+0  00000-0 0  9997
2 10016 100.0000  48.0000 0000000   0.0000  48.0000 15.08756051    14
CTC2_L_00151005-02
1 10017U 24288TH  26075.70042824  .00000000  00000+0  00000-0 0  9999
2 10017 100.0000  48.0000 0000000   0.0000 138.0000 15.08756051    15
CTC2_L_00151005-03
1 10018U 23715VW  26075.70042824  .00000000  00000+0  00000-0 0  9994
2 10018 100.0000  48.0000 0000000   0.0000 228.0000 15.08756051    16
CTC2_L_00151005-04
1 10019U 22664OC  26075.70042824  .00000000  00000+0  00000-0 0  9997
2 10019 100.0000  48.0000 0000000   0.0000 318.0000 15.08756051    17
CTC2_L_00151006-01
1 10020U 24596ZN  26075.70042824  .00000000  00000+0  00000-0 0  9995
2 10020 100.0000  60.0000 0000000   0.0000  60.0000 15.08756051    17
CTC2_L_00151006-02
1 10021U 26393GY  26075.70042824  .00000000  00000+0  00000-0 0  9993
2 10021 100.0000  60.0000 0000000   0.0000 150.0000 15.08756051    18
CTC2_L_00151006-03
1 10022U 25024SW  26075.70042824  .00000000  00000+0  00000-0 0  9994
2 10022 100.0000  60.0000 0000000   0.0000 240.0000 15.08756051    19
CTC2_L_00151006-04
1 10023U 26311OL  26075.70042824  .00000000  00000+0  00000-0 0  9995
2 10023 100.0000  60.0000 0000000   0.0000 330.0000 15.08756051    10
CTC2_L_00151007-01
1 10024U 22652OW  26075.70042824  .00000000  00000+0  00000-0 0  9990
2 10024 100.0000  72.0000 0000000   0.0000  72.0000 15.08756051    17
CTC2_L_00151007-02
1 10025U 25988BB  26075.70042824  .00000000  00000+0  00000-0 0  9996
2 10025 100.0000  72.0000 0000000   0.0000 162.0000 15.08756051    18
CTC2_L_00151007-03
1 10026U 22355DC  26075.70042824  .00000000  00000+0  00000-0 0  9992
2 10026 100.0000  72.0000 0000000   0.0000 252.0000 15.08756051    19
CTC2_L_00151007-04
1 10027U 24875KF  26075.70042824  .00000000  00000+0  00000-0 0  9992
2 10027 100.0000  72.0000 0000000   0.0000 342.0000 15.08756051    10
CTC2_L_00151008-01
1 10028U 24687LK  26075.70042824  .00000000  00000+0  00000-0 0  9994
2 10028 100.0000  84.0000 0000000   0.0000  84.0000 15.08756051    17
CTC2_L_00151008-02
1 10029U 23694ML  26075.70042824  .00000000  00000+0  00000-0 0  9992
2 10029 100.0000  84.0000 0000000   0.0000 174.0000 15.08756051    18
CTC2_L_00151008-03
1 10030U 24247CP  26075.70042824  .00000000  00000+0  00000-0 0  9999
2 10030 100.0000  84.0000 0000000   0.0000 264.0000 15.08756051    10
CTC2_L_00151008-04
1 10031U 22179B   26075.70042824  .00000000  00000+0  00000-0 0  9992
2 10031 100.0000  84.0000 0000000   0.0000 354.0000 15.08756051    11
CTC2_L_00151009-01
1 10032U 22119LJ  26075.70042824  .00000000  00000+0  00000-0 0  9997
2 10032 100.0000  96.0000 0000000   0.0000  96.0000 15.08756051    18
CTC2_L_00151009-02
1 10033U 26023TD  26075.70042824  .00000000  00000+0  00000-0 0  9996
2 10033 100.0000  96.0000 0000000   0.0000 186.0000 15.08756051    19
CTC2_L_00151009-03
1 10034U 24528NL  26075.70042824  .00000000  00000+0  00000-0 0  9995
2 10034 100.0000  96.0000 0000000   0.0000 276.0000 15.08756051    10
CTC2_L_00151009-04
1 10035U 23129MQ  26075.70042824  .00000000  00000+0  00000-0 0  9992
2 10035 100.0000  96.0000 0000000   0.0000   6.0000 15.08756051    12
CTC2_L_00151010-01
1 10036U 26191KE  26075.70042824  .00000000  00000+0  00000-0 0  9995
2 10036 100.0000 108.0000 0000000   0.0000 108.0000 15.08756051    10
CTC2_L_00151010-02
1 10037U 26487WA  26075.70042824  .00000000  00000+0  00000-0 0  9994
2 10037 100.0000 108.0000 0000000   0.0000 198.0000 15.08756051    10
CTC2_L_00151010-03
1 10038U 22324U   26075.70042824  .00000000  00000+0  00000-0 0  9991
2 10038 100.0000 108.0000 0000000   0.0000 288.0000 15.08756051    11
CTC2_L_00151010-04
1 10039U 26075VQ  26075.70042824  .00000000  00000+0  00000-0 0  9999
2 10039 100.0000 108.0000 0000000   0.0000  18.0000 15.08756051    13
CTC2_L_00151011-01
1 10040U 26444LL  26075.70042824  .00000000  00000+0  00000-0 0  9991
2 10040 100.0000 120.0000 0000000   0.0000 120.0000 15.08756051    13
CTC2_L_00151011-02
1 10041U 22097AC  26075.70042824  .00000000  00000+0  00000-0 0  9992
2 10041 100.0000 120.0000 0000000   0.0000 210.0000 15.08756051    14
CTC2_L_00151011-03
1 10042U 26816OM  26075.70042824  .00000000  00000+0  00000-0 0  9996
2 10042 100.0000 120.0000 0000000   0.0000 300.0000 15.08756051    15
CTC2_L_00151011-04
1 10043U 23688OX  26075.70042824  .00000000  00000+0  00000-0 0  9991
2 10043 100.0000 120.0000 0000000   0.0000  30.0000 15.08756051    16
CTC2_L_00151012-01
1 10044U 23310ZC  26075.70042824  .00000000  00000+0  00000-0 0  9994
2 10044 100.0000 132.0000 0000000   0.0000 132.0000 15.08756051    13
CTC2_L_00151012-02
1 10045U 24180T   26075.70042824  .00000000  00000+0  00000-0 0  9991
2 10045 100.0000 132.0000 0000000   0.0000 222.0000 15.08756051    14
CTC2_L_00151012-03
1 10046U 24785QY  26075.70042824  .00000000  00000+0  00000-0 0  9993
2 10046 100.0000 132.0000 0000000   0.0000 312.0000 15.08756051    15
CTC2_L_00151012-04
1 10047U 26851VO  26075.70042824  .00000000  00000+0  00000-0 0  9990
2 10047 100.0000 132.0000 0000000   0.0000  42.0000 15.08756051    16
CTC2_L_00151013-01
1 10048U 25875XJ  26075.70042824  .00000000  00000+0  00000-0 0  9996
2 10048 100.0000 144.0000 0000000   0.0000 144.0000 15.08756051    13
CTC2_L_00151013-02
1 10049U 24108EI  26075.70042824  .00000000  00000+0  00000-0 0  9995
2 10049 100.0000 144.0000 0000000   0.0000 234.0000 15.08756051    14
CTC2_L_00151013-03
1 10050U 23716CO  26075.70042824  .00000000  00000+0  00000-0 0  9991
2 10050 100.0000 144.0000 0000000   0.0000 324.0000 15.08756051    16
CTC2_L_00151013-04
1 10051U 23264BC  26075.70042824  .00000000  00000+0  00000-0 0  9990
2 10051 100.0000 144.0000 0000000   0.0000  54.0000 15.08756051    17
CTC2_L_00151014-01
1 10052U 22841FQ  26075.70042824  .00000000  00000+0  00000-0 0  9991
2 10052 100.0000 156.0000 0000000   0.0000 156.0000 15.08756051    14
CTC2_L_00151014-02
1 10053U 23457AI  26075.70042824  .00000000  00000+0  00000-0 0  9996
2 10053 100.0000 156.0000 0000000   0.0000 246.0000 15.08756051    15
CTC2_L_00151014-03
1 10054U 24478PB  26075.70042824  .00000000  00000+0  00000-0 0  9991
2 10054 100.0000 156.0000 0000000   0.0000 336.0000 15.08756051    16
CTC2_L_00151014-04
1 10055U 23737Z   26075.70042824  .00000000  00000+0  00000-0 0  9999
2 10055 100.0000 156.0000 0000000   0.0000  66.0000 15.08756051    17
CTC2_L_00151015-01
1 10056U 22486F   26075.70042824  .00000000  00000+0  00000-0 0  9990
2 10056 100.0000 168.0000 0000000   0.0000 168.0000 15.08756051    14
CTC2_L_00151015-02
1 10057U 24682OW  26075.70042824  .00000000  00000+0  00000-0 0  9991
2 10057 100.0000 168.0000 0000000   0.0000 258.0000 15.08756051    15
CTC2_L_00151015-03
1 10058U 23982PS  26075.70042824  .00000000  00000+0  00000-0 0  9994
2 10058 100.0000 168.0000 0000000   0.0000 348.0000 15.08756051    16
CTC2_L_00151015-04
1 10059U 23703BO  26075.70042824  .00000000  00000+0  00000-0 0  9996
2 10059 100.0000 168.0000 0000000   0.0000  78.0000 15.08756051    17
CTC2_L_00151016-01
1 10060U 25907SW  26075.70042824  .00000000  00000+0  00000-0 0  9996
2 10060 100.0000 180.0000 0000000   0.0000 180.0000 15.08756051    17
CTC2_L_00151016-02
1 10061U 24186BV  26075.70042824  .00000000  00000+0  00000-0 0  9995
2 10061 100.0000 180.0000 0000000   0.0000 270.0000 15.08756051    18
